satname,norad_id,inclination_deg,eccentricity,mean_motion_rev_per_day,perigee_km,apogee_km,l1,l2
STARLINK-1184,45098,53.0536,0.0001983,15.0807526,540.7096015293655,543.4541603375437,1 45098U 20006BG  26022.44569201  .00004764  00000+0  32378-3 0  9993,2 45098  53.0536  93.9586 0001983   9.1141 350.9885 15.08075260330050
STARLINK-1193,45100,53.0539,0.0001833,15.41723515,439.772468917502,442.27237276118194,1 45100U 20006BJ  26022.58337963  .00199952  00000+0  45509-2 0  9993,2 45100  53.0539  91.1618 0001833  90.4093 354.4754 15.41723515  5734
STARLINK-1143,45179,53.0505,0.0003657,15.528602,405.89807620627016,410.861734670907,1 45179U 20012B   26022.49484918  .00037765  00000+0  60262-3 0  9996,2 45179  53.0505 194.1130 0003657 167.0683 193.0420 15.52860200328727
STARLINK-1202,45183,53.118,0.0002098,15.20859499,501.80304627341684,504.6904748993593,1 45183U 20012F   26022.58337963  .01838208  00000+0  74704-1 0  9994,2 45183  53.1180 253.2034 0002098  99.4864  51.8759 15.20859499  5832
STARLINK-1216,45185,53.1159,0.0001457,15.20654918,502.86122958784017,504.8666446609177,1 45185U 20012H   26022.58337963  .00890933  00000+0  37176-1 0  9990,2 45185  53.1159 253.1924 0001457 103.8928  93.2784 15.20654918  5721
STARLINK-1225,45187,53.0943,0.000127,15.15672926,518.0604418500307,519.8122984860538,1 45187U 20012K   26022.58337963  .01496858  00000+0  70848-1 0  9994,2 45187  53.0943 253.4425 0001270  98.8766 220.0534 15.15672926  5724
STARLINK-1230,45189,53.0912,0.0001405,15.15238435,519.285562655381,521.2240107474454,1 45189U 20012M   26022.58337963  .01337946  00000+0  64753-1 0  9996,2 45189  53.0912 253.4502 0001405 111.7916 183.7130 15.15238435  5832
STARLINK-1234,45190,53.0482,0.001252,15.51729827,403.1744641633877,420.17615418556034,1 45190U 20012N   26022.17388456  .00073616  00000+0  12072-2 0  9994,2 45190  53.0482 190.8298 0012520 151.8203 208.3485 15.51729827328639
STARLINK-1269,45197,53.0991,0.0001398,15.16895111,514.2674630880047,516.1948488244097,1 45197U 20012V   26022.58337963  .01287297  00000+0  59639-1 0  9995,2 45197  53.0991 253.3645 0001398 115.7472 166.5598 15.16895111  5532
STARLINK-1154,45198,53.0519,0.0001444,15.38418366,449.7997176987101,451.77191060743735,1 45198U 20012W   26022.29051421  .00026099  00000+0  68654-3 0  9995,2 45198  53.0519 230.1044 0001444 116.2893 243.8258 15.38418366328133
STARLINK-1199,45201,53.0539,0.0001611,15.06381867,546.1514509232193,548.382816135042,1 45201U 20012Z   26022.29160369 -.00004013  00000+0 -25077-3 0  9998,2 45201  53.0539 234.9096 0001611  86.3242 273.7931 15.06381867328129
STARLINK-1209,45206,53.0491,0.001486,15.42871312,427.51174614707634,447.7682353636019,1 45206U 20012AE  26022.47533607  .00022601  00000+0  51310-3 0  9992,2 45206  53.0491 194.1252 0014860 143.5144 216.6877 15.42871312327762
STARLINK-1210,45207,53.0146,0.000695,15.83545997,315.7664893306737,325.07748632375296,1 45207U 20012AF  26022.58337963  .00164220  00000+0  72267-3 0  9990,2 45207  53.0146 136.2118 0006950 320.7561  20.4477 15.83545997  6045
STARLINK-1231,45212,53.0461,0.0002329,15.17391539,512.1224746506605,515.3327051766428,1 45212U 20012AL  26022.29828777  .00008017  00000+0  41145-3 0  9994,2 45212  53.0461 228.2113 0002329 130.9859 229.1336 15.17391539328176
STARLINK-1271,45217,53.0534,0.0001394,15.06390909,546.2740232110145,548.2048181571008,1 45217U 20012AR  26022.27685734 -.00001954  00000+0 -11232-3 0  9990,2 45217  53.0534 234.9711 0001394  88.0885 272.0263 15.06390909328122
STARLINK-1191,45222,53.1251,0.0002004,15.23043433,495.28920606164775,498.04462747148773,1 45222U 20012AW  26022.58337963  .01760166  00000+0  67385-1 0  9992,2 45222  53.1251 213.0707 0002004  95.5224   8.1194 15.23043433  5799
STARLINK-1212,45223,53.0531,0.0002292,15.40400404,443.36284683690974,446.4905392337969,1 45223U 20012AX  26022.47894417  .00018629  00000+0  46255-3 0  9997,2 45223  53.0531 210.2442 0002292 123.4602 236.6621 15.40400404328497
STARLINK-1215,45225,53.1568,0.0001211,15.29345015,476.9388395226033,478.5993399775407,1 45225U 20012AZ  26022.58337963  .00015920  00000+0  56301-3 0  9993,2 45225  53.1568 212.3977 0001211 112.4950 142.4659 15.29345015  5726
STARLINK-1221,45227,53.0669,0.0002873,15.39994182,444.1658947758988,448.0871165862636,1 45227U 20012BB  26022.47508369  .00018777  00000+0  47237-3 0  9994,2 45227  53.0669 128.3066 0002873 206.0017 154.0843 15.39994182329586
STARLINK-1222,45228,53.0547,0.0001224,15.45889417,427.9327844700583,429.5991143120682,1 45228U 20012BC  26022.51501510  .00024344  00000+0  50009-3 0  9999,2 45228  53.0547 203.5934 0001224 125.3017 234.8104 15.45889417328479
STARLINK-1226,45229,53.135,0.0001325,15.25265026,489.07970011052566,490.8997536931556,1 45229U 20012BD  26022.58337963  .01764723  00000+0  63237-1 0  9994,2 45229  53.1350 212.9268 0001325  75.8487 266.2134 15.25265026  5622
STARLINK-1227,45230,53.1166,0.0001372,15.21101826,501.57186596315114,503.45991711658826,1 45230U 20012BE  26022.58337963  .01024057  00000+0  42253-1 0  9990,2 45230  53.1166 213.0474 0001372 114.4164 181.7289 15.21101826  5797
STARLINK-1246,45235,53.1121,0.000175,15.20170133,504.1223748559796,506.5315872493493,1 45235U 20012BK  26022.58337963  .00113369  00000+0  51072-2 0  9999,2 45235  53.1121 253.0137 0001750 114.2517 122.1454 15.20170133  5792
STARLINK-1270,45237,53.0508,0.0003589,15.39613171,444.80270266380194,449.7019671283906,1 45237U 20012BM  26022.53553329  .00018098  00000+0  46137-3 0  9992,2 45237  53.0508 206.7645 0003589 145.0003 215.1237 15.39613171328542
STARLINK-1279,45360,53.0499,0.0007177,15.47755459,418.4123283798117,428.1751020284164,1 45360U 20019A   26022.22176365  .00033182  00000+0  63507-3 0  9994,2 45360  53.0499 322.5653 0007177  58.8971 301.2739 15.47755459323450
STARLINK-1301,45361,53.0494,0.0009847,15.53456778,399.96132634611695,413.3232706966246,1 45361U 20019B   26022.25379038  .00078785  00000+0  12142-2 0  9996,2 45361  53.0494 330.0280 0009847  47.7665 312.4178 15.53456778323369
STARLINK-1262,45366,53.0559,0.0001542,15.06375231,546.2195719424326,548.35537284972,1 45366U 20019G   26022.38192882  .00010959  00000+0  75395-3 0  9994,2 45366  53.0559  14.4997 0001542  80.8267 279.2896 15.06375231322755
STARLINK-1273,45367,53.0549,0.0001347,15.21837952,499.3703672446154,501.223417335199,1 45367U 20019H   26022.58337963  .02032668  00000+0  79455-1 0  9990,2 45367  53.0549  12.6779 0001347  59.6940 308.6377 15.21837952  5689
STARLINK-1276,45368,53.0563,0.0001414,15.06391482,546.2584165269172,548.2169124820384,1 45368U 20019J   26022.37455004  .00000359  00000+0  43020-4 0  9997,2 45368  53.0563  14.5351 0001414  93.4583 266.6568 15.06391482322758
STARLINK-1277,45369,53.0554,8.95e-05,15.37777113,452.07276412164083,453.2954811025884,1 45369U 20019K   26022.58337963  .01308666  00000+0  31736-1 0  9995,2 45369  53.0554  12.1422 0000895  59.6861  21.4533 15.37777113  5791
STARLINK-1281,45370,53.0544,0.0001419,15.06385674,546.2727522220839,548.2381786037686,1 45370U 20019L   26022.36348401  .00000434  00000+0  48063-4 0  9997,2 45370  53.0544  14.5866 0001419  87.8268 272.2884 15.06385674322753
STARLINK-1300,45374,53.0555,0.000171,15.0638056,546.0868945873162,548.455384170984,1 45374U 20019Q   26022.38561539 -.00002547  00000+0 -15220-3 0  9999,2 45374  53.0555  14.4795 0001710 113.8148 246.3021 15.06380560322754
STARLINK-1302,45375,53.0551,0.0001086,15.31798835,469.7016330276392,471.1891451225456,1 45375U 20019R   26022.39949914  .00240858  00000+0  75023-2 0  9991,2 45375  53.0551  12.3149 0001086  70.4132 289.6985 15.31798835322786
STARLINK-1304,45376,53.0558,0.0003074,15.40678232,442.0092494376195,446.20356468428145,1 45376U 20019S   26022.37377097  .00022688  00000+0  55578-3 0  9990,2 45376  53.0558   9.8422 0003074  64.4969 295.6353 15.40678232322817
STARLINK-1305,45377,53.0507,0.0005697,15.44367155,429.357756423351,437.1186373226683,1 45377U 20019T   26022.23802656  .00025291  00000+0  54647-3 0  9999,2 45377  53.0507 354.6435 0005697  15.7076 344.4105 15.44367155323023
STARLINK-1319,45379,53.0531,0.0005709,15.49160339,415.3005161578685,423.0616939702313,1 45379U 20019V   26022.33993810  .00034428  00000+0  62725-3 0  9993,2 45379  53.0531 353.9083 0005709  25.2634 334.8651 15.49160339323044
STARLINK-1266,45383,53.0549,0.0001061,15.35733026,458.0186790996622,459.4694652631797,1 45383U 20019Z   26022.58337963  .00352892  00000+0  95587-2 0  9995,2 45383  53.0549 351.6386 0001061  91.4123 259.4444 15.35733026  5799
STARLINK-1267,45384,53.0554,0.000683,15.41227753,437.8261899010431,447.1431591084165,1 45384U 20019AA  26022.19019119  .00105799  00000+0  24814-2 0  9990,2 45384  53.0554 348.6206 0006830  65.1931 294.9783 15.41227753323095
STARLINK-1272,45386,53.05,0.0006261,15.46685614,422.16938843893513,430.69006689531943,1 45386U 20019AC  26022.16042992  .00048159  00000+0  95089-3 0  9993,2 45386  53.0500 333.5859 0006261  32.1824 327.9563 15.46685614323304
STARLINK-1274,45387,53.0336,0.0009643,15.40525435,437.9783847188055,451.1366333489277,1 45387U 20019AD  26022.04635982  .00065726  00000+0  15885-2 0  9992,2 45387  53.0336 324.7768 0009643  81.2513 278.9582 15.40525435323416
STARLINK-1280,45388,53.0503,0.0006258,15.54776251,398.5596057723442,407.0466304241554,1 45388U 20019AE  26022.21860328  .00043377  00000+0  64392-3 0  9992,2 45388  53.0503 349.0421 0006258  28.1962 331.9386 15.54776251323080
STARLINK-1283,45389,53.052,0.0011674,15.46488652,419.0631463617219,434.9517976749903,1 45389U 20019AF  26022.27096976  .00070914  00000+0  13991-2 0  9994,2 45389  53.0520 333.1959 0011674  69.7832 290.4429 15.46488652323325
STARLINK-1284,45390,53.0551,0.0001616,15.41132709,441.6628392573375,443.86735481509913,1 45390U 20019AG  26022.58337963  .00977068  00000+0  21477-1 0  9997,2 45390  53.0551 351.3837 0001616  68.2790  33.0672 15.41132709  5333
